GSAT-29                 
1 43698U 18089A   26197.20957385  .00000075  00000+0  00000+0 0  9990
2 43698   0.0379 239.4010 0003034 218.3539 326.8337  1.00267372 28078
ES'HAIL 2               
1 43700U 18090A   26197.27502971  .00000133  00000+0  00000+0 0  9995
2 43700   0.0165  53.3784 0002244 105.6197 259.8961  1.00271498 27965
GEO-KOMPSAT-2A          
1 43823U 18100A   26197.29530980 -.00000355  00000+0  00000+0 0  9993
2 43823   0.0333 172.0474 0001946 290.6637  65.9713  1.00268278 27924
GSAT-11                 
1 43824U 18100B   26197.19608149 -.00000087  00000+0  00000+0 0  9998
2 43824   0.0449 251.2890 0007695 206.6064 340.7257  1.00271157 27762
GSAT-7A                 
1 43864U 18105A   26197.13979775  .00000016  00000+0  00000+0 0  9998
2 43864   0.0871  91.3134 0001695  20.0173 295.7145  1.00271387 27739
COSMOS 2533             
1 43867U 18107A   26197.61919654 -.00000051  00000+0  00000+0 0  9996
2 43867   0.0357 112.1605 0000555 185.6589 289.5409  1.00279372 27746
TJS-3                   
1 43874U 18110A   26196.78608697 -.00000228  00000+0  00000+0 0  9993
2 43874   2.6165  80.1459 0002550  88.8325 195.8619  1.00271702 27706
ZHONGXING-2D            
1 43920U 19001A   26197.29565647  .00000000  00000+0  00000+0 0  9996
2 43920   0.0185 257.1172 0000362  42.2093 231.2356  1.00269780 54374
HELLAS-SAT 4 & SGS-1    
1 44034U 19007A   26195.28158947  .00000146  00000+0  00000+0 0  9998
2 44034   0.0672 125.5173 0005727  21.8726 285.1324  1.00271532 27637
GSAT-31                 
1 44035U 19007B   26197.13685108  .00000115  00000+0  00000+0 0  9995
2 44035   0.0172  97.7333 0000795 131.3253 162.0447  1.00271324 27259
NUSANTARA SATU          
1 44048U 19009A   26194.52515208 -.00000239  00000+0  00000+0 0  9992
2 44048   0.0316 124.8301 0004678   6.3551 135.2754  1.00270313 27032
ZHONGXING-6C            
1 44067U 19012A   26197.01062861 -.00000346  00000+0  00000+0 0  9995
2 44067   0.0476  59.3324 0015064 354.3133  14.4461  1.00270506 27026
WGS 10 (USA 291)        
1 44071U 19014A   26197.21061385  .00000036  00000+0  00000+0 0  9999
2 44071   0.0155  59.5080 0000206 240.7915 129.8548  1.00270236 26907
TIANLIAN 2-01           
1 44076U 19017A   26197.19955412 -.00000117  00000+0  00000+0 0  9998
2 44076   0.6129  83.0544 0001497  79.4109 280.4215  1.00270892 26937
ARABSAT-6A              
1 44186U 19021A   26197.27598304  .00000143  00000+0  00000+0 0  9995
2 44186   0.0448  11.2569 0001931 251.4423 161.2593  1.00273597 26447
BEIDOU-3 IGSO-1         
1 44204U 19023A   26197.31702608 -.00000209  00000+0  00000+0 0  9991
2 44204  58.7367  37.3490 0025911 224.1033 266.0076  1.00282974  7503
BEIDOU-2 G8             
1 44231U 19027A   26197.29851648 -.00000259  00000+0  00000+0 0  9996
2 44231   1.7297  74.4864 0009685 282.0670 189.5695  1.00271360 26379
YAMAL 601               
1 44307U 19031A   26197.20836051  .00000109  00000+0  00000+0 0  9990
2 44307   0.0197  81.3763 0002360  33.6478 303.0227  1.00272378 26215
AT&T T-16               
1 44333U 19034A   26195.82414432 -.00000123  00000+0  00000+0 0  9990
2 44333   0.0157  70.7114 0000616 248.2150 169.5701  1.00268430 25917
EUTELSAT 7C             
1 44334U 19034B   26197.27130302  .00000037  00000+0  00000+0 0  9996
2 44334   0.0768 180.3317 0003207 280.1426 298.3091  1.00270214  7128
BEIDOU-3 IGSO-2         
1 44337U 19035A   26197.29340313 -.00000138  00000+0  00000+0 0  9990
2 44337  55.2503 158.6068 0039402 216.5730 143.0260  1.00257273 25964
COSMOS 2539             
1 44457U 19048A   26195.96202914  .00000072  00000+0  00000+0 0  9999
2 44457   0.0358 102.1610 0000812 356.5248 192.4498  1.00271598 25509
EDRS-C                  
1 44475U 19049A   26195.58706845 -.00000270  00000+0  00000+0 0  9991
2 44475   0.0172 104.9935 0000893  24.4612 156.8304  1.00271140 25488
INTELSAT 39 (IS-39)     
1 44476U 19049B   26197.21087385  .00000000  00000+0  00000+0 0  9995
2 44476   0.0247  59.7034 0000927 281.3507  90.8594  1.00269278 25414
AMOS-17                 
1 44479U 19050A   26197.27329637  .00000099  00000+0  00000+0 0  9993
2 44479   0.0212 340.9657 0001483 146.6297 281.9010  1.00274034 25470
AEHF-5 (USA 292)        
1 44481U 19051A   26197.28837644 -.00000267  00000+0  00000+0 0  9998
2 44481   1.4305 338.4971 0064951 357.5223 154.9841  1.00273506 25556
EUTELSAT 5 WEST B       
1 44624U 19067A   26197.26896301 -.00000053  00000+0  00000+0 0  9990
2 44624   0.0828 316.7221 0003059 158.4418 270.7577  1.00272156 24724
MEV-1                   
1 44625U 19067B   26167.92963140 -.00000149  00000+0  00000+0 0  9993
2 44625   0.8740 268.9828 0002794 179.8034 307.2103  1.00269616 61744
TJS-4                   
1 44637U 19070A   26197.14387111 -.00000181  00000+0  00000+0 0  9991
2 44637   0.1081 260.5781 0000402  43.8808 124.8588  1.00273872 24824
TIBA-1                  
1 44800U 19080A   26197.20567383  .00000145  00000+0  00000+0 0  9991
2 44800   0.0534  18.8735 0001927 107.8680 276.8092  1.00271435 24341
INMARSAT GX5            
1 44801U 19080B   26197.27208302  .00000064  00000+0  00000+0 0  9992
2 44801   0.0348   4.0866 0002306 123.0693 275.9319  1.00273165  7078
JCSAT-18 (KACIFIC 1)    
1 44868U 19091A   26197.22822344 -.00000212  00000+0  00000+0 0  9996
2 44868   0.0330 230.7747 0000481  24.2786 271.1415  1.00269100 24309
