OBJECT_NAME,OBJECT_ID,EPOCH,MEAN_MOTION,ECCENTRICITY,INCLINATION,RA_OF_ASC_NODE,ARG_OF_PERICENTER,MEAN_ANOMALY,EPHEMERIS_TYPE,CLASSIFICATION_TYPE,NORAD_CAT_ID,ELEMENT_SET_NO,REV_AT_EPOCH,BSTAR,MEAN_MOTION_DOT,MEAN_MOTION_DDOT
GSAT-29,2018-089A,2026-07-16T05:01:47.180640,1.00267372,.00030344,0.0379,239.4010,218.3539,326.8337,0,U,43698,999,2807,0,.75E-6,0
ES'HAIL 2,2018-090A,2026-07-16T06:36:02.566944,1.00271498,.00022446,0.0165,53.3784,105.6197,259.8961,0,U,43700,999,2796,0,.133E-5,0
GEO-KOMPSAT-2A,2018-100A,2026-07-16T07:05:14.766720,1.00268278,.00019463,0.0333,172.0474,290.6637,65.9713,0,U,43823,999,2792,0,-.355E-5,0
GSAT-11,2018-100B,2026-07-16T04:42:21.440736,1.00271157,.00076956,0.0449,251.2890,206.6064,340.7257,0,U,43824,999,2776,0,-.87E-6,0
GSAT-7A,2018-105A,2026-07-16T03:21:18.525600,1.00271387,.0001695,0.0871,91.3134,20.0173,295.7145,0,U,43864,999,2773,0,.16E-6,0
COSMOS 2533,2018-107A,2026-07-16T14:51:38.581056,1.00279372,.0000555,0.0357,112.1605,185.6589,289.5409,0,U,43867,999,2774,0,-.51E-6,0
TJS-3,2018-110A,2026-07-15T18:51:57.914208,1.00271702,.000255,2.6165,80.1459,88.8325,195.8619,0,U,43874,999,2770,0,-.228E-5,0
ZHONGXING-2D,2019-001A,2026-07-16T07:05:44.719008,1.00269780,.00003626,0.0185,257.1172,42.2093,231.2356,0,U,43920,999,5437,0,0,0
HELLAS-SAT 4 & SGS-1,2019-007A,2026-07-14T06:45:29.330208,1.00271532,.00057278,0.0672,125.5173,21.8726,285.1324,0,U,44034,999,2763,0,.146E-5,0
GSAT-31,2019-007B,2026-07-16T03:17:03.933312,1.00271324,.0000795,0.0172,97.7333,131.3253,162.0447,0,U,44035,999,2725,0,.115E-5,0
NUSANTARA SATU,2019-009A,2026-07-13T12:36:13.139712,1.00270313,.00046786,0.0316,124.8301,6.3551,135.2754,0,U,44048,999,2703,0,-.239E-5,0
ZHONGXING-6C,2019-012A,2026-07-16T00:15:18.311904,1.00270506,.0015064,0.0476,59.3324,354.3133,14.4461,0,U,44067,999,2702,0,-.346E-5,0
WGS 10 (USA 291),2019-014A,2026-07-16T05:03:17.036640,1.00270236,.00002064,0.0155,59.5080,240.7915,129.8548,0,U,44071,999,2690,0,.36E-6,0
TIANLIAN 2-01,2019-017A,2026-07-16T04:47:21.475968,1.00270892,.00014974,0.6129,83.0544,79.4109,280.4215,0,U,44076,999,2693,0,-.117E-5,0
ARABSAT-6A,2019-021A,2026-07-16T06:37:24.934656,1.00273597,.00019312,0.0448,11.2569,251.4423,161.2593,0,U,44186,999,2644,0,.143E-5,0
BEIDOU-3 IGSO-1,2019-023A,2026-07-16T07:36:31.053312,1.00282974,.00259113,58.7367,37.3490,224.1033,266.0076,0,U,44204,999,750,0,-.209E-5,0
BEIDOU-2 G8,2019-027A,2026-07-16T07:09:51.823872,1.00271360,.00096854,1.7297,74.4864,282.0670,189.5695,0,U,44231,999,2637,0,-.259E-5,0
YAMAL 601,2019-031A,2026-07-16T05:00:02.348064,1.00272378,.00023606,0.0197,81.3763,33.6478,303.0227,0,U,44307,999,2621,0,.109E-5,0
AT&T T-16,2019-034A,2026-07-14T19:46:46.069248,1.00268430,.00006162,0.0157,70.7114,248.2150,169.5701,0,U,44333,999,2591,0,-.123E-5,0
EUTELSAT 7C,2019-034B,2026-07-16T06:30:40.580928,1.00270214,.00032075,0.0768,180.3317,280.1426,298.3091,0,U,44334,999,712,0,.37E-6,0
BEIDOU-3 IGSO-2,2019-035A,2026-07-16T07:02:30.030432,1.00257273,.00394029,55.2503,158.6068,216.5730,143.0260,0,U,44337,999,2596,0,-.138E-5,0
COSMOS 2539,2019-048A,2026-07-14T23:05:19.317696,1.00271598,.0000812,0.0358,102.1610,356.5248,192.4498,0,U,44457,999,2550,0,.72E-6,0
EDRS-C,2019-049A,2026-07-14T14:05:22.714080,1.00271140,.0000893,0.0172,104.9935,24.4612,156.8304,0,U,44475,999,2548,0,-.27E-5,0
INTELSAT 39 (IS-39),2019-049B,2026-07-16T05:03:39.500640,1.00269278,.00009275,0.0247,59.7034,281.3507,90.8594,0,U,44476,999,2541,0,0,0
AMOS-17,2019-050A,2026-07-16T06:33:32.806368,1.00274034,.00014838,0.0212,340.9657,146.6297,281.9010,0,U,44479,999,2547,0,.99E-6,0
AEHF-5 (USA 292),2019-051A,2026-07-16T06:55:15.724416,1.00273506,.00649516,1.4305,338.4971,357.5223,154.9841,0,U,44481,999,2555,0,-.267E-5,0
EUTELSAT 5 WEST B,2019-067A,2026-07-16T06:27:18.404064,1.00272156,.00030591,0.0828,316.7221,158.4418,270.7577,0,U,44624,999,2472,0,-.53E-6,0
MEV-1,2019-067B,2026-06-16T22:18:40.152960,1.00269616,.00027946,0.8740,268.9828,179.8034,307.2103,0,U,44625,999,6174,0,-.149E-5,0
TJS-4,2019-070A,2026-07-16T03:27:10.463904,1.00273872,.00004026,0.1081,260.5781,43.8808,124.8588,0,U,44637,999,2482,0,-.181E-5,0
TIBA-1,2019-080A,2026-07-16T04:56:10.218912,1.00271435,.00019271,0.0534,18.8735,107.8680,276.8092,0,U,44800,999,2434,0,.145E-5,0
INMARSAT GX5,2019-080B,2026-07-16T06:31:47.972928,1.00273165,.00023066,0.0348,4.0866,123.0693,275.9319,0,U,44801,999,707,0,.64E-6,0
JCSAT-18 (KACIFIC 1),2019-091A,2026-07-16T05:28:38.505216,1.00269100,.00004813,0.0330,230.7747,24.2786,271.1415,0,U,44868,999,2430,0,-.212E-5,0
